SPACEBEE-58             
1 47464U 21006BD  22219.41779585  .00014863  00000+0  59457-3 0  9990
2 47464  97.4412 280.5497 0012697  96.5092 263.7592 15.25112743 85182
SPACEBEE-57             
1 47465U 21006BE  22218.57880693  .00004655  00000+0  24947-3 0  9994
2 47465  97.4348 275.5482 0006981 118.4878 241.7058 15.15450984 84806
SPACEBEE-44             
1 47466U 21006BF  22219.11288980  .00013751  00000+0  60960-3 0  9999
2 47466  97.4378 277.8235 0007112 109.6284 250.5720 15.21702326 84992
SPACEBEE-56             
1 47468U 21006BH  22218.43571975  .00011551  00000+0  51993-3 0  9996
2 47468  97.4388 277.0749 0007229 111.4680 248.7327 15.21221053 84880
SPACEBEE-45             
1 47470U 21006BK  22219.11229845  .00013539  00000+0  60207-3 0  9997
2 47470  97.4386 277.8608 0007319 109.9135 250.2890 15.21596834 84997
SPACEBEE-43             
1 47480U 21006BV  22219.10919420  .00013840  00000+0  61184-3 0  9992
2 47480  97.4381 277.8192 0007032 109.2452 250.9546 15.21796296 84997
SPACEBEE-87             
1 47703U 21015E   22219.15449091  .00027021  00000+0  70560-3 0  9991
2 47703  97.4134 297.0158 0006552 238.1089 121.9519 15.38749549 80058
SPACEBEE-86             
1 47704U 21015F   22219.14968184  .00030723  00000+0  78018-3 0  9999
2 47704  97.4118 297.1450 0006948 233.8268 126.2335 15.39577294 80047
SPACEBEE-85             
1 47705U 21015G   22218.16897147  .00028245  00000+0  71605-3 0  9992
2 47705  97.4119 296.1637 0006444 239.0469 121.0144 15.39649509 79911
SPACEBEE-84             
1 47706U 21015H   22219.19509985  .00030818  00000+0  77573-3 0  9996
2 47706  97.4120 297.2328 0006653 235.2634 124.7986 15.39848502 80074
SPACEBEE-83             
1 47707U 21015J   22218.21935547  .00029534  00000+0  73754-3 0  9996
2 47707  97.4106 296.2311 0006367 241.3546 118.7060 15.40100313 79923
SPACEBEE-82             
1 47708U 21015K   22218.46056710  .00032212  00000+0  78201-3 0  9999
2 47708  97.4107 296.6593 0006373 236.1099 123.9542 15.40941722 79978
SPACEBEE-81             
1 47709U 21015L   22219.46206149  .00036521  00000+0  86919-3 0  9996
2 47709  97.4114 297.7773 0006533 230.9616 129.1050 15.41515187 80050
SPACEBEE-78             
1 47710U 21015M   22219.19665177  .00038345  00000+0  88206-3 0  9995
2 47710  97.4112 297.6723 0006407 232.9638 127.1023 15.42530211 80100
SPACEBEE-76             
1 47711U 21015N   22219.15219236  .00043587  00000+0  95489-3 0  9998
2 47711  97.4107 297.8771 0006339 229.7522 130.3172 15.43959147 80116
SPACEBEE-80             
1 47712U 21015P   22218.20076175  .00035193  00000+0  82856-3 0  9995
2 47712  97.4112 296.5607 0006211 236.7172 123.3480 15.41852288 79944
SPACEBEE-77             
1 47714U 21015Q   22218.79335022  .00039291  00000+0  87166-3 0  9992
2 47714  97.4109 297.4515 0006423 231.0830 128.9846 15.43608231 79973
SPACEBEE-79             
1 47715U 21015R   22218.67150931  .00033256  00000+0  78698-3 0  9999
2 47715  97.4141 297.0728 0006262 236.4288 123.6361 15.41709200 80016
SPACEBEE-65             
1 48626U 21006ES  22218.60919054  .00015333  00000+0  60864-3 0  9995
2 48626  97.2052 265.1594 0013790  83.7699 276.5110 15.25344621 85049
SPACEBEE-64             
1 48627U 21006ET  22219.11862098  .00016539  00000+0  65233-3 0  9992
2 48627  97.2053 265.6838 0013670  81.8642 278.4147 15.25543654 85128
SPACEBEE-66             
1 48628U 21006EU  22218.57751023  .00013900  00000+0  55799-3 0  9992
2 48628  97.2052 265.0474 0013963  83.4372 276.8456 15.24988264 85035
SPACEBEE-67             
1 48629U 21006EV  22219.11474418  .00015392  00000+0  61962-3 0  9990
2 48629  97.2052 265.5366 0013998  82.5832 277.6997 15.24869724 85117
SPACEBEE-68             
1 48630U 21006EW  22218.41135075  .00014213  00000+0  57565-3 0  9992
2 48630  97.2049 264.8198 0014099  84.5833 275.7013 15.24683010 85004
SPACEBEE-69             
1 48631U 21006EX  22219.08462778  .00015150  00000+0  61605-3 0  9991
2 48631  97.2053 265.4337 0014160  82.5296 277.7550 15.24532411 85109
SPACEBEE-70             
1 48632U 21006EY  22218.58147576  .00013253  00000+0  54201-3 0  9998
2 48632  97.2051 264.8985 0014434  84.3478 275.9406 15.24366304 85023
SPACEBEE-71             
1 48633U 21006EZ  22219.13345284  .00013715  00000+0  56387-3 0  9997
2 48633  97.2054 265.3659 0014561  82.3913 277.8978 15.24179490 85106
SPACEBEE-72             
1 48634U 21006FA  22218.58076800  .00012708  00000+0  52802-3 0  9990
2 48634  97.2051 264.7536 0014943  83.6523 276.6416 15.23834767 85014
SPACEBEE-73             
1 48635U 21006FB  22219.12786786  .00013376  00000+0  55763-3 0  9994
2 48635  97.2052 265.2318 0015020  82.9367 277.3578 15.23710240 85099
SPACEBEE-74             
1 48636U 21006FC  22219.37490403  .00012145  00000+0  51304-3 0  9990
2 48636  97.2051 265.3570 0015342  82.2929 278.0050 15.23280753 85122
SPACEBEE-75             
1 48637U 21006FD  22219.14804162  .00012572  00000+0  53492-3 0  9991
2 48637  97.2049 265.0550 0015622  83.1084 277.1930 15.23025098 85089
SPACEBEENZ-10           
1 48882U 21059D   22218.81820727  .00007765  00000+0  37728-3 0  9991
2 48882  97.5577 348.5940 0006437 296.1404  63.9167 15.18706896 61595
SPACEBEE-100            
1 48883U 21059E   22219.15647065  .00005262  00000+0  27368-3 0  9991
2 48883  97.5600 348.5080 0007059 291.2604  68.7875 15.16469080 61618
SPACEBEE-101            
1 48884U 21059F   22219.10088299  .00005524  00000+0  28846-3 0  9998
2 48884  97.5600 348.4354 0006810 295.6527  64.4001 15.16306631 61603
SPACEBEE-102            
1 48886U 21059H   22219.09097256  .00005645  00000+0  29397-3 0  9997
2 48886  97.5602 348.4479 0006836 295.6666  64.3860 15.16397988 61604
SPACEBEENZ-9            
1 48887U 21059J   22219.08267630  .00008151  00000+0  39586-3 0  9998
2 48887  97.5572 348.8531 0006385 294.8175  65.2395 15.18704209 61635
SPACEBEE-103            
1 48888U 21059K   22219.32432734  .00005447  00000+0  28208-3 0  9999
2 48888  97.5603 348.7565 0007038 291.2228  68.8253 15.16609402 61643
SPACEBEENZ-7            
1 48889U 21059L   22218.84861993  .00008651  00000+0  41790-3 0  9990
2 48889  97.5590 348.8104 0006993 294.8027  65.2479 15.18871224 61606
SPACEBEE-104            
1 48890U 21059M   22218.89205796  .00005786  00000+0  29907-3 0  9992
2 48890  97.5599 348.2291 0006999 296.7900  63.2617 15.16648123 61571
SPACEBEENZ-8            
1 48891U 21059N   22218.91814613  .00008664  00000+0  41934-3 0  9992
2 48891  97.5592 348.8709 0007028 294.4176  65.6324 15.18801976 61614
SPACEBEE-106            
1 48893U 21059Q   22218.79190239  .00005090  00000+0  26458-3 0  9995
2 48893  97.5621 348.3354 0007489 296.2829  63.7634 15.16502580 61560
SPACEBEE-107            
1 48894U 21059R   22219.15486087  .00006040  00000+0  30959-3 0  9993
2 48894  97.5625 348.7766 0007324 293.2379  66.8082 15.16923138 61625
SPACEBEE-108            
1 48895U 21059S   22219.31645334  .00005243  00000+0  27250-3 0  9998
2 48895  97.5615 348.8472 0007590 293.3300  66.7134 15.16497407 61644
SPACEBEE-105            
1 48896U 21059T   22219.30484592  .00006635  00000+0  34362-3 0  9993
2 48896  97.5599 348.5991 0007126 282.6490  77.3945 15.16519340 61633
SPACEBEE-109            
1 48897U 21059U   22219.09914933  .00006184  00000+0  31804-3 0  9994
2 48897  97.5620 348.6690 0007638 292.0163  68.0258 15.16791888 61617
SPACEBEE-110            
1 48899U 21059W   22218.84281866  .00006368  00000+0  32474-3 0  9998
2 48899  97.5624 348.5784 0007830 290.7331  69.3062 15.17080449 61580
SPACEBEE-111            
1 48904U 21059AB  22218.84037578  .00005661  00000+0  28589-3 0  9991
2 48904  97.5631 348.7689 0008710 291.2592  68.7710 15.17466073 61599
SPACEBEE-92             
1 48932U 21059BF  22219.36059731  .00016867  00000+0  64693-3 0  9991
2 48932  97.5483 351.2157 0012560 280.4823  79.4999 15.26494372 61837
SPACEBEE-89             
1 48933U 21059BG  22218.89453038  .00018386  00000+0  68571-3 0  9994
2 48933  97.5477 350.8953 0012413 281.3058  78.6786 15.27405484 61772
SPACEBEE-96             
1 48934U 21059BH  22218.89275650  .00015422  00000+0  60381-3 0  9996
2 48934  97.5488 350.6207 0012670 282.3425  77.6394 15.25828094 61755
SPACEBEE-88             
1 48935U 21059BJ  22218.88150868  .00018992  00000+0  70343-3 0  9993
2 48935  97.5465 350.8937 0012344 280.7053  79.2796 15.27628152 61771
SPACEBEE-99             
1 48936U 21059BK  22218.87427115  .00014617  00000+0  58322-3 0  9998
2 48936  97.5491 350.5095 0012718 283.2794  76.7025 15.25206501 61740
SPACEBEE-94             
1 48937U 21059BL  22218.92391367  .00017229  00000+0  66692-3 0  9995
2 48937  97.5477 350.7100 0012590 282.3169  77.6659 15.26183529 61768
SPACEBEE-93             
1 48939U 21059BN  22219.18781895  .00018799  00000+0  70767-3 0  9996
2 48939  97.5475 351.1213 0012595 281.0304  78.9518 15.27090400 61810
SPACEBEE-91             
1 48940U 21059BP  22218.78275332  .00018520  00000+0  69609-3 0  9992
2 48940  97.5481 350.7424 0012542 282.1899  77.7934 15.27145100 61751
SPACEBEE-95             
1 48945U 21059BU  22219.36585403  .00017425  00000+0  66948-3 0  9991
2 48945  97.5488 351.2208 0012625 280.5051  79.4764 15.26429333 61834
SPACEBEE-97             
1 48946U 21059BV  22219.10793970  .00015345  00000+0  60541-3 0  9996
2 48946  97.5488 350.7995 0012703 282.1504  77.8311 15.25572822 61785
SPACEBEE-90             
1 48947U 21059BW  22219.10126662  .00019581  00000+0  73286-3 0  9991
2 48947  97.5477 351.0825 0012468 280.7438  79.2397 15.27275171 61800
SPACEBEE-98             
1 48949U 21059BY  22218.90915902  .00015735  00000+0  62010-3 0  9993
2 48949  97.5500 350.6315 0012779 282.8834  77.0976 15.25603830 61754
SPACEBEE-121            
1 52009U 22026B   22219.04597349  .00004477  00000+0  23385-3 0  9990
2 52009  97.5025 218.3159 0029056  99.0746 261.3776 15.16046039 21855
SPACEBEE-114            
1 52010U 22026C   22219.43962642  .00005756  00000+0  29779-3 0  9991
2 52010  97.5047 218.7444 0028139  99.3195 261.1222 15.16283244 21927
